{
  "type": "FeatureCollection",
  "name": "workshop-quickstart-places",
  "features": [
    {
      "type": "Feature",
      "id": "qs-miami",
      "geometry": { "type": "Point", "coordinates": [-80.1918, 25.7617] },
      "properties": {
        "name": "Miami",
        "observed_at": "2026-05-15T12:00:00+00:00",
        "note": "Workshop quickstart only — not D1–D4"
      }
    },
    {
      "type": "Feature",
      "id": "qs-orlando",
      "geometry": { "type": "Point", "coordinates": [-81.3792, 28.5383] },
      "properties": {
        "name": "Orlando",
        "observed_at": "2026-05-15T13:30:00+00:00",
        "note": "Workshop quickstart only — not D1–D4"
      }
    },
    {
      "type": "Feature",
      "id": "qs-tallahassee",
      "geometry": { "type": "Point", "coordinates": [-84.2807, 30.4383] },
      "properties": {
        "name": "Tallahassee",
        "observed_at": "2026-05-15T15:00:00-04:00",
        "note": "Workshop quickstart only — not D1–D4"
      }
    }
  ]
}
